{
    "links": {
        "self": "http://www.neowsapp.com/rest/v1/neo/3781736?api_key=iIulBulltgU6a56xZRHN4H3l9WmuAYTsLGpBGhQ2"
    },
    "id": "3781736",
    "neo_reference_id": "3781736",
    "name": "(2017 SL12)",
    "designation": "2017 SL12",
    "nasa_jpl_url": "http://ssd.jpl.nasa.gov/sbdb.cgi?sstr=3781736",
    "absolute_magnitude_h": 22.2,
    "estimated_diameter": {
        "kilometers": {
            "estimated_diameter_min": 0.096506147,
            "estimated_diameter_max": 0.2157943048
        },
        "meters": {
            "estimated_diameter_min": 96.5061469579,
            "estimated_diameter_max": 215.7943048444
        },
        "miles": {
            "estimated_diameter_min": 0.059966121,
            "estimated_diameter_max": 0.134088323
        },
        "feet": {
            "estimated_diameter_min": 316.6212271853,
            "estimated_diameter_max": 707.9865871058
        }
    },
    "is_potentially_hazardous_asteroid": false,
    "close_approach_data": [
        {
            "close_approach_date": "2017-09-18",
            "close_approach_date_full": "2017-Sep-18 14:09",
            "epoch_date_close_approach": 1505743740000,
            "relative_velocity": {
                "kilometers_per_second": "11.4032548838",
                "kilometers_per_hour": "41051.7175817135",
                "miles_per_hour": "25507.940849593"
            },
            "miss_distance": {
                "astronomical": "0.2228455031",
                "lunar": "86.6869007059",
                "kilometers": "33337212.602838397",
                "miles": "20714783.3541359986"
            },
            "orbiting_body": "Earth"
        }
    ],
    "orbital_data": {
        "orbit_id": "3",
        "orbit_determination_date": "2017-11-23 06:19:07",
        "first_observation_date": "2017-09-22",
        "last_observation_date": "2017-11-22",
        "data_arc_in_days": 61,
        "observations_used": 31,
        "orbit_uncertainty": "8",
        "minimum_orbit_intersection": ".105427",
        "jupiter_tisserand_invariant": "3.062",
        "epoch_osculation": "2458021.5",
        "eccentricity": ".5992686187242793",
        "semi_major_axis": "2.727558886658882",
        "inclination": "5.296526056601931",
        "ascending_node_longitude": "173.0967698733046",
        "orbital_period": "1645.355056525123",
        "perihelion_distance": "1.093018440161681",
        "perihelion_argument": "211.2885504699346",
        "aphelion_distance": "4.362099333156084",
        "perihelion_time": "2458032.042332748323",
        "mean_anomaly": "357.6933612144411",
        "mean_motion": ".2187977595305753",
        "equinox": "J2000",
        "orbit_class": {
            "orbit_class_type": "AMO",
            "orbit_class_description": "Near-Earth asteroid orbits similar to that of 1221 Amor",
            "orbit_class_range": "1.017 AU < q (perihelion) < 1.3 AU"
        }
    },
    "is_sentry_object": false
}